HELIOS 2A               
1 28492U 04049A   23172.53007581  .00002924  00000+0  27374-3 0  9998
2 28492  98.2824 139.2107 0012487 315.0836  44.9371 14.94886517990190
SPIRALE A               
1 33751U 09008C   23172.56874858  .00000338  00000+0  83868-3 0  9991
2 33751   2.0250 265.8786 5489951 224.7089  75.4370  4.59035078211770
SPIRALE B               
1 33752U 09008D   23172.33107281  .00020796  00000+0  25830-2 0  9990
2 33752   2.0125 284.0864 6844087 181.3340 175.5697  2.86605124135554
SAPPHIRE                
1 39088U 13009C   23172.50229312  .00000170  00000+0  75543-4 0  9995
2 39088  98.4147   3.7980 0010110 258.0641 101.9411 14.34465302540029
